#aV2015  9 26  0  0  0.00000000     288 DD+AD WGS84 FIT  NGA
## 1863 518400.00000000   300.00000000 57291 0.0000000000000
+   31     1  2  3  4  5  6  7  8  9 11 12 13 14 15 16 17 18
+         19 20 21 22 23 24 25 26 27 28 29 30 31 32  0  0  0
+          0  0  0  0  0  0  0  0  0  0  0  0  0  0  0  0  0
+          0  0  0  0  0  0  0  0  0  0  0  0  0  0  0  0  0
+          0  0  0  0  0  0  0  0  0  0  0  0  0  0  0  0  0
++         2  2  2  2  2  2  2  2  2  2  2  2  2  2  2  2  2
++         2  2  2  2  2  2  2  2  2  2  2  2  2  2  0  0  0
++         0  0  0  0  0  0  0  0  0  0  0  0  0  0  0  0  0
++         0  0  0  0  0  0  0  0  0  0  0  0  0  0  0  0  0
++         0  0  0  0  0  0  0  0  0  0  0  0  0  0  0  0  0
%c cc cc ccc ccc cccc cccc cccc cccc ccccc ccccc ccccc ccccc
%c cc cc ccc ccc cccc cccc cccc cccc ccccc ccccc ccccc ccccc
%f  0.0000000  0.000000000  0.00000000000  0.000000000000000
%f  0.0000000  0.000000000  0.00000000000  0.000000000000000
%i    0    0    0    0      0      0      0      0         0
%i    0    0    0    0      0      0      0      0         0
/*      NGA, ST. LOUIS,MO.                                  
/*   EPHEMERIS COMPUTED FROM  1 DAYS OF DATA                
/*   EPOCHA SMOOTHER                                       
/* CCCCCCCCCCCCCCCCCCCCCCCCCCCCCCCCCCCCCCCCCCCCCCCCCCCCCCCCC
*  2015  9 26 22 50  0.00000000
P  1 -10527.187783  20977.352365 -12306.426959      1.235072                    
V  1 -13199.674494   8632.895875  26352.800375      0.007038                    
P  2  21478.028151 -12615.465662  -8175.131864    590.532922                    
V  2  -5402.693523  10302.448602 -29182.684197      0.014942                    
P  3  -2376.912130  15167.198263 -21663.191572     21.230659                    
V  3 -26314.479707  -8106.219392  -2810.470066     -0.001594                    
P  4 -16855.002355  20004.022974  -4056.300371    -25.126473                    
V  4  -5936.753829    675.864040  30900.183275     -0.043999                    
P  5  21747.276031  -4349.552420  14695.697468   -191.264821                    
V  5  17216.020046   7700.864379 -22912.936450      0.040009                    
P  6  19887.610353  -1653.620919 -17523.183898     65.688489                    
V  6 -15307.201201  16228.132328 -18913.826492      0.072146                    
P  7   3882.500746  15776.225315  21057.644025    484.079835                    
V  7 -20619.104380  16692.013715  -9136.956556     -0.007187                    
P  8  -6836.670273  20229.263563  15846.124743     -6.674112                    
V  8  -6253.955986 -19135.820564  21775.888433     -0.013783                    
P  9   8116.566339  25043.802610   3454.714109     -7.197165                    
V  9  -1904.717320   4935.379495 -31261.613190      0.024856                    
P 11  -8857.724564  24693.511170  -4379.885333   -606.618978                    
V 11  -6565.538107   2214.856196  29577.326758     -0.023060                    
P 12   5434.413750 -13565.471003 -22280.879166    331.680935                    
V 12  26152.481022   9872.615729    573.789955      0.033719                    
P 13  12822.427798 -10990.492089  20395.223162   -152.221704                    
V 13   3554.474318  25902.645863  11541.831227     -0.029323                    
P 14 -13826.579301 -15082.824606 -16763.822635     32.006145                    
V 14  -1339.303537 -21727.088580  20196.313272     -0.026027                    
P 15   5823.939600 -20897.257489  15003.263608   -273.718473                    
V 15   7911.387768  17986.699146  22168.717042     -0.020374                    
P 16 -22024.160847   1823.086486  14921.039389    -82.465889                    
V 16 -17146.434102  -8004.586551 -23842.339069      0.038954                    
P 17  14260.718489  14247.614162 -17098.750607   -189.053870                    
V 17   2323.293579  22120.907431  19810.223757     -0.013238                    
P 18 -16457.622794 -15928.646047  14189.494147    437.479197                    
V 18  17203.370078   2301.089885  23097.855384      0.033404                    
P 19  -1755.427796  25273.991228   7019.251128   -520.687793                    
V 19  -3865.735211  -8892.816953  30528.915323     -0.005911                    
P 20   6133.817341 -14787.267237  21044.981984    358.475224                    
V 20  26403.928078   6590.909771  -2963.573986      0.030256                    
P 21  -8247.276711 -14154.937140  21587.765620   -482.591485                    
V 21  19223.526277 -17384.681097  -4526.678225     -0.027123                    
P 22 -24821.182770  -9400.940167   2706.522770    395.218661                    
V 22   4096.928127  -2752.387629  30539.766378      0.037091                    
P 23  -1354.205887  24628.290739  -9087.671799   -135.503938                    
V 23  -5773.940865 -10956.164031 -28744.335526     -0.021887                    
P 24  12501.786463 -21268.289294  -9658.967275     -5.367015                    
V 24  10916.046291  -6331.995554  28324.130723     -0.007363                    
P 25  -8991.349466 -16333.709290 -19080.585118    -44.206698                    
V 25  23090.924520   6292.471018 -16193.941450     -0.052652                    
P 26 -25660.458903  -3922.824530   5637.297171    -64.884613                    
V 26  -6018.308747  -4736.778695 -30669.589798     -0.118829                    
P 27 -13188.665075   8470.526820  21397.926012     22.832964                    
V 27  -6494.819983 -26450.138060   6577.193696      0.029919                    
P 28  22304.537029  13356.194885   6261.480788    470.328380                    
V 28  -7205.980842  -1090.817336  31034.578247      0.025618                    
P 29  -5082.759885 -26062.766291   1224.607698    636.449807                    
V 29   2078.672139  -1894.372214 -31976.332540      0.021508                    
P 30  13882.084215   8132.408426  21145.309059     31.330322                    
V 30 -20725.288718  17093.121602   6951.145261      0.064295                    
P 31 -20383.528344   2240.163171 -16934.297364    301.404665                    
V 31  15548.579064 -15043.391493 -20217.005105     -0.013872                    
P 32 -14966.021946   9246.601414 -19787.089832    -31.754411                    
V 32 -22761.013948 -10991.105581  12644.778218      0.111504                    
EOF
